{
  "type": "FeatureCollection",
  "features": [
    {
      "type": "Feature",
      "properties": {
        "norad_id": 66587,
        "name": "CZ-3B R/B",
        "group": "last-30-days",
        "lat": 45.48050834653124,
        "lon": -135.30175957708667,
        "alt_km": 33992.50284079013,
        "timestamp": "2025-12-10T14:53:35.946943+00:00",
        "meta_object_name": "CZ-3B R/B",
        "meta_object_id": "2025-269B",
        "meta_epoch": "2025-12-08T20:16:41.011968",
        "meta_mean_motion": 2.02868797,
        "meta_eccentricity": 0.75197721,
        "meta_inclination": 51.3469,
        "meta_ra_of_asc_node": 170.5472,
        "meta_arg_of_pericenter": 228.0184,
        "meta_mean_anomaly": 37.9661,
        "meta_ephemeris_type": 0,
        "meta_classification_type": "U",
        "meta_norad_cat_id": 66587,
        "meta_element_set_no": 999,
        "meta_rev_at_epoch": 37,
        "meta_bstar": 0.0012608329,
        "meta_mean_motion_dot": 0.00050405,
        "meta_mean_motion_ddot": 4.22103e-07,
        "tle_line1": "1 66587U 25269B   25342.84491912  .00050405  42210-6  12608-2 0  9998",
        "tle_line2": "2 66587  51.3469 170.5472 7519772 228.0184  37.9661  2.02868797   372"
      },
      "geometry": {
        "type": "Point",
        "coordinates": [
          -135.30175957708667,
          45.48050834653124
        ]
      }
    },
    {
      "type": "Feature",
      "properties": {
        "norad_id": 66588,
        "name": "STARLINK-36076",
        "group": "last-30-days",
        "lat": 37.648349791171995,
        "lon": -98.98919914045199,
        "alt_km": 409.24666117153083,
        "timestamp": "2025-12-10T14:53:35.946964+00:00",
        "meta_object_name": "STARLINK-36076",
        "meta_object_id": "2025-270A",
        "meta_epoch": "2025-12-10T06:00:02.000160",
        "meta_mean_motion": 15.52693991,
        "meta_eccentricity": 0.00012055,
        "meta_inclination": 43,
        "meta_ra_of_asc_node": 207.302,
        "meta_arg_of_pericenter": 255.1253,
        "meta_mean_anomaly": 256.0972,
        "meta_ephemeris_type": 0,
        "meta_classification_type": "U",
        "meta_norad_cat_id": 66588,
        "meta_element_set_no": 999,
        "meta_rev_at_epoch": 400,
        "meta_bstar": -0.039373347,
        "meta_mean_motion_dot": -0.02201011,
        "meta_mean_motion_ddot": 0,
        "tle_line1": "1 66588U 25270A   25344.25002315 -.02201011  00000+0 -39373-1 0  9999",
        "tle_line2": "2 66588  43.0000 207.3020 0001205 255.1253 256.0972 15.52693991  4002"
      },
      "geometry": {
        "type": "Point",
        "coordinates": [
          -98.98919914045199,
          37.648349791171995
        ]
      }
    },
    {
      "type": "Feature",
      "properties": {
        "norad_id": 66589,
        "name": "STARLINK-35447",
        "group": "last-30-days",
        "lat": 39.02742180905429,
        "lon": -94.43744360020096,
        "alt_km": 409.0252683631652,
        "timestamp": "2025-12-10T14:53:35.946975+00:00",
        "meta_object_name": "STARLINK-35447",
        "meta_object_id": "2025-270B",
        "meta_epoch": "2025-12-10T06:00:02.000160",
        "meta_mean_motion": 15.52660807,
        "meta_eccentricity": 0.00012761,
        "meta_inclination": 43.0001,
        "meta_ra_of_asc_node": 207.2923,
        "meta_arg_of_pericenter": 261.3217,
        "meta_mean_anomaly": 253.7439,
        "meta_ephemeris_type": 0,
        "meta_classification_type": "U",
        "meta_norad_cat_id": 66589,
        "meta_element_set_no": 999,
        "meta_rev_at_epoch": 410,
        "meta_bstar": -0.03845323,
        "meta_mean_motion_dot": -0.02153227,
        "meta_mean_motion_ddot": 0,
        "tle_line1": "1 66589U 25270B   25344.25002315 -.02153227  00000+0 -38453-1 0  9993",
        "tle_line2": "2 66589  43.0001 207.2923 0001276 261.3217 253.7439 15.52660807  4105"
      },
      "geometry": {
        "type": "Point",
        "coordinates": [
          -94.43744360020096,
          39.02742180905429
        ]
      }
    },
    {
      "type": "Feature",
      "properties": {
        "norad_id": 66590,
        "name": "STARLINK-35429",
        "group": "last-30-days",
        "lat": 38.35638031041487,
        "lon": -96.74727352388659,
        "alt_km": 409.3093715277755,
        "timestamp": "2025-12-10T14:53:35.946984+00:00",
        "meta_object_name": "STARLINK-35429",
        "meta_object_id": "2025-270C",
        "meta_epoch": "2025-12-10T06:00:02.000160",
        "meta_mean_motion": 15.52648011,
        "meta_eccentricity": 0.00015175,
        "meta_inclination": 43,
        "meta_ra_of_asc_node": 207.2966,
        "meta_arg_of_pericenter": 259.035,
        "meta_mean_anomaly": 254.1175,
        "meta_ephemeris_type": 0,
        "meta_classification_type": "U",
        "meta_norad_cat_id": 66590,
        "meta_element_set_no": 999,
        "meta_rev_at_epoch": 410,
        "meta_bstar": -0.038288256,
        "meta_mean_motion_dot": -0.02144319,
        "meta_mean_motion_ddot": 0,
        "tle_line1": "1 66590U 25270C   25344.25002315 -.02144319  00000+0 -38288-1 0  9993",
        "tle_line2": "2 66590  43.0000 207.2966 0001517 259.0350 254.1175 15.52648011  4108"
      },
      "geometry": {
        "type": "Point",
        "coordinates": [
          -96.74727352388659,
          38.35638031041487
        ]
      }
    },
    {
      "type": "Feature",
      "properties": {
        "norad_id": 66591,
        "name": "STARLINK-36058",
        "group": "last-30-days",
        "lat": 39.64702593815898,
        "lon": -92.10404854897696,
        "alt_km": 409.137902383809,
        "timestamp": "2025-12-10T14:53:35.946995+00:00",
        "meta_object_name": "STARLINK-36058",
        "meta_object_id": "2025-270D",
        "meta_epoch": "2025-12-10T06:00:02.000160",
        "meta_mean_motion": 15.52644439,
        "meta_eccentricity": 0.00015294,
        "meta_inclination": 42.9999,
        "meta_ra_of_asc_node": 207.2868,
        "meta_arg_of_pericenter": 259.765,
        "meta_mean_anomaly": 257.2263,
        "meta_ephemeris_type": 0,
        "meta_classification_type": "U",
        "meta_norad_cat_id": 66591,
        "meta_element_set_no": 999,
        "meta_rev_at_epoch": 400,
        "meta_bstar": -0.038267488,
        "meta_mean_motion_dot": -0.02143049,
        "meta_mean_motion_ddot": 0,
        "tle_line1": "1 66591U 25270D   25344.25002315 -.02143049  00000+0 -38267-1 0  9990",
        "tle_line2": "2 66591  42.9999 207.2868 0001529 259.7650 257.2263 15.52644439  4009"
      },
      "geometry": {
        "type": "Point",
        "coordinates": [
          -92.10404854897696,
          39.64702593815898
        ]
      }
    },
    {
      "type": "Feature",
      "properties": {
        "norad_id": 66592,
        "name": "STARLINK-36066",
        "group": "last-30-days",
        "lat": 40.220923895484475,
        "lon": -89.72154709186688,
        "alt_km": 409.04328312705184,
        "timestamp": "2025-12-10T14:53:35.947005+00:00",
        "meta_object_name": "STARLINK-36066",
        "meta_object_id": "2025-270E",
        "meta_epoch": "2025-12-10T06:00:02.000160",
        "meta_mean_motion": 15.52647212,
        "meta_eccentricity": 0.00015154,
        "meta_inclination": 43,
        "meta_ra_of_asc_node": 207.2822,
        "meta_arg_of_pericenter": 259.7608,
        "meta_mean_anomaly": 259.144,
        "meta_ephemeris_type": 0,
        "meta_classification_type": "U",
        "meta_norad_cat_id": 66592,
        "meta_element_set_no": 999,
        "meta_rev_at_epoch": 390,
        "meta_bstar": -0.038291643,
        "meta_mean_motion_dot": -0.0214443,
        "meta_mean_motion_ddot": 0,
        "tle_line1": "1 66592U 25270E   25344.25002315 -.02144430  00000+0 -38292-1 0  9994",
        "tle_line2": "2 66592  43.0000 207.2822 0001515 259.7608 259.1440 15.52647212  3901"
      },
      "geometry": {
        "type": "Point",
        "coordinates": [
          -89.72154709186688,
          40.220923895484475
        ]
      }
    },
    {
      "type": "Feature",
      "properties": {
        "norad_id": 66593,
        "name": "STARLINK-36031",
        "group": "last-30-days",
        "lat": 40.74814479395706,
        "lon": -87.28397737120929,
        "alt_km": 408.8276332769683,
        "timestamp": "2025-12-10T14:53:35.947014+00:00",
        "meta_object_name": "STARLINK-36031",
        "meta_object_id": "2025-270F",
        "meta_epoch": "2025-12-10T06:00:02.000160",
        "meta_mean_motion": 15.52694969,
        "meta_eccentricity": 0.00012475,
        "meta_inclination": 43,
        "meta_ra_of_asc_node": 207.2777,
        "meta_arg_of_pericenter": 251.1344,
        "meta_mean_anomaly": 269.6756,
        "meta_ephemeris_type": 0,
        "meta_classification_type": "U",
        "meta_norad_cat_id": 66593,
        "meta_element_set_no": 999,
        "meta_rev_at_epoch": 400,
        "meta_bstar": -0.039453118,
        "meta_mean_motion_dot": -0.02205044,
        "meta_mean_motion_ddot": 0,
        "tle_line1": "1 66593U 25270F   25344.25002315 -.02205044  00000+0 -39453-1 0  9994",
        "tle_line2": "2 66593  43.0000 207.2777 0001247 251.1344 269.6756 15.52694969  4005"
      },
      "geometry": {
        "type": "Point",
        "coordinates": [
          -87.28397737120929,
          40.74814479395706
        ]
      }
    }
  ]
}